OBJECT_NAME,OBJECT_ID,EPOCH,MEAN_MOTION,ECCENTRICITY,INCLINATION,RA_OF_ASC_NODE,ARG_OF_PERICENTER,MEAN_ANOMALY,EPHEMERIS_TYPE,CLASSIFICATION_TYPE,NORAD_CAT_ID,ELEMENT_SET_NO,REV_AT_EPOCH,BSTAR,MEAN_MOTION_DOT,MEAN_MOTION_DDOT
ONEWEB-0395,2021-132G,2026-06-11T03:21:02.122560,13.11417125,.00019717,87.8890,22.2715,89.5847,270.5507,0,U,50475,999,21492,.14777816E-2,.536E-5,0
ONEWEB-0396,2021-132H,2026-06-11T04:09:06.267744,13.18684554,.00019622,87.9168,336.6513,87.3804,272.7552,0,U,50476,999,22084,.1085783E-4,.17E-6,0
ONEWEB-0397,2021-132J,2026-06-11T04:30:57.754944,13.18685294,.0001913,87.9167,336.6482,84.0308,276.1042,0,U,50477,999,22082,.10094208E-3,.53E-6,0
ONEWEB-0398,2021-132K,2026-06-11T02:34:36.719616,13.11417343,.00018745,87.8901,22.2680,94.1928,265.9414,0,U,50478,999,21481,-.1651107E-2,-.572E-5,0
ONEWEB-0399,2021-132L,2026-06-11T02:15:05.406048,13.11414973,.00022274,87.8898,22.2812,76.7740,283.3636,0,U,50479,999,21480,-.1399394E-2,-.483E-5,0
ONEWEB-0400,2021-132M,2026-06-11T05:48:39.887712,13.18685057,.00018729,87.9167,336.6274,97.2331,262.9014,0,U,50480,999,22082,.9910002E-5,.17E-6,0
ONEWEB-0401,2021-132N,2026-06-11T05:04:57.258048,13.18684492,.00016935,87.9168,336.6306,85.4671,274.6655,0,U,50481,999,22082,.15202559E-3,.73E-6,0
ONEWEB-0402,2021-132P,2026-06-11T06:00:48.957696,13.18685534,.00016294,87.9167,336.6123,77.1600,282.9714,0,U,50482,999,22085,.55982231E-4,.35E-6,0
ONEWEB-0403,2021-132Q,2026-06-11T04:47:57.404544,13.18684824,.00019933,87.9167,336.6466,90.4527,269.6834,0,U,50483,999,22080,.12840711E-3,.64E-6,0
ONEWEB-0404,2021-132R,2026-06-11T03:38:07.281024,13.11415112,.00021357,87.8893,22.2686,84.2250,275.9122,0,U,50484,999,21490,.83792693E-3,.31E-5,0
ONEWEB-0405,2021-132S,2026-06-11T05:07:23.912544,13.18686154,.00019258,87.9170,336.6283,105.4704,254.6641,0,U,50485,999,22120,.10142969E-3,.53E-6,0
ONEWEB-0406,2021-132T,2026-06-10T23:27:27.518976,13.18684711,.00023937,87.9163,336.6921,88.6002,271.5404,0,U,50486,999,22080,.83652357E-4,.46E-6,0
ONEWEB-0407,2021-132U,2026-06-11T01:07:01.011936,13.18685056,.00016101,87.9167,336.6701,92.4623,267.6693,0,U,50487,999,22075,.76044386E-4,.43E-6,0
ONEWEB-0409,2021-132V,2026-06-11T03:35:40.340544,13.11416109,.00020922,87.8896,22.2567,87.2771,272.8596,0,U,50488,999,21479,.9894893E-3,.363E-5,0
ONEWEB-0412,2021-132W,2026-06-11T04:28:31.780416,13.18684893,.00017031,87.9165,336.6508,82.3881,277.7445,0,U,50489,999,22086,.44540847E-4,.3E-6,0
ONEWEB-0413,2021-132X,2026-06-11T04:35:49.431840,13.18684836,.0001553,87.9157,336.6487,85.9298,274.2012,0,U,50490,999,22080,.88239822E-3,.361E-5,0
ONEWEB-0414,2021-132Y,2026-06-11T04:13:58.236672,13.18685206,.00018529,87.9167,336.6332,85.7540,274.3804,0,U,50491,999,22083,.3134313E-4,.25E-6,0
ONEWEB-0417,2021-132Z,2026-06-11T04:26:06.545472,13.18685310,.0002078,87.9159,336.6517,91.3298,268.8072,0,U,50492,999,22081,.59454299E-4,.36E-6,0
ONEWEB-0418,2021-132AA,2026-06-11T04:40:29.532000,13.18685455,.00021287,87.9168,336.6486,91.9979,268.1397,0,U,50493,999,22087,.10341629E-3,.54E-6,0
ONEWEB-0419,2021-132AB,2026-06-11T05:07:07.945824,13.18665307,.0002088,87.9165,336.6447,97.4921,262.6448,0,U,50494,999,22079,.5076597E-4,.33E-6,0
ONEWEB-0420,2021-132AC,2026-06-11T04:16:23.664288,13.18685880,.00016336,87.9158,336.6552,93.2076,266.9243,0,U,50495,999,22078,.53604934E-4,.34E-6,0
ONEWEB-0421,2021-132AD,2026-06-11T05:55:56.424576,13.18684436,.00018761,87.9163,336.6388,79.6004,280.5340,0,U,50496,999,22083,.419E-6,.13E-6,0
ONEWEB-0424,2021-132AE,2026-06-11T05:00:06.116832,13.18684683,.00020173,87.9167,336.6444,101.3025,258.8334,0,U,50497,999,22085,.12183122E-3,.61E-6,0
ONEWEB-0426,2021-132AF,2026-06-11T05:49:52.600224,13.18688420,.0002379,87.9167,336.6286,79.2159,280.9241,0,U,50498,999,22080,.33669168E-4,.26E-6,0
ONEWEB-0427,2021-132AG,2026-06-11T04:57:40.468032,13.18684531,.00020749,87.9168,336.6245,90.4995,269.6375,0,U,50499,999,22082,.10328488E-3,.54E-6,0
ONEWEB-0429,2021-132AH,2026-06-11T04:38:15.110016,13.18685167,.00017289,87.9161,336.6521,91.8329,268.3001,0,U,50500,999,22079,-.27085045E-4,.2E-7,0
ONEWEB-0430,2021-132AJ,2026-06-11T00:42:43.632288,13.18686095,.00017264,87.9161,336.6829,99.1704,260.9624,0,U,50501,999,22081,.54898442E-4,.35E-6,0
ONEWEB-0432,2021-132AK,2026-06-11T08:00:01.999872,13.17132075,.00020566,87.9171,336.5979,110.3813,77.4216,0,U,50502,999,520,.11505145E+0,.44561E-3,0
ONEWEB-0440,2021-132AL,2026-06-11T04:50:23.161344,13.18684880,.00016414,87.9168,336.6444,82.8445,277.2874,0,U,50503,999,22078,.12911579E-3,.64E-6,0
ONEWEB-0450,2021-132AM,2026-06-11T04:40:53.040576,13.18685818,.00016649,87.9157,336.6514,93.9986,266.1336,0,U,50504,999,22081,.13529968E-3,.66E-6,0
